STARLINK-36995          
1 68143U 26049B   26091.83335647  .00026219  00000+0  17646-3 0  9996
2 68143  97.2840 112.2466 0000967  80.5036 265.2036 15.75143880  4347
STARLINK-37020          
1 68144U 26049C   26091.13562175  .00176242  00000+0  89883-3 0  9992
2 68144  97.2835 111.5180 0000933 116.1145 244.0219 15.80902457  2959
STARLINK-36244          
1 68145U 26049D   26091.78614443  .00177844  00000+0  11659-2 0  9994
2 68145  97.2844 112.1628 0001288  83.5675 276.5736 15.75242474  3059
STARLINK-36980          
1 68146U 26049E   26091.83118545  .00092584  00000+0  47802-3 0  9990
2 68146  97.2842 112.2555 0001144 106.0631 254.0763 15.80860169  3067
STARLINK-37055          
1 68147U 26049F   26091.83268897  .00155913  00000+0  79797-3 0  9991
2 68147  97.2840 112.2534 0001932 132.6445 227.4987 15.80877912  3062
STARLINK-36981          
1 68148U 26049G   26091.82968112  .00252914  00000+0  12770-2 0  9994
2 68148  97.2832 112.2574 0001625 118.4739 241.6694 15.80922497  3067
STARLINK-36992          
1 68149U 26049H   26091.82892961  .00246819  00000+0  12476-2 0  9993
2 68149  97.2833 112.2585 0001600 112.5207 247.6231 15.80913771  3067
STARLINK-37060          
1 68150U 26049J   26091.82817936  .00162181  00000+0  82935-3 0  9991
2 68150  97.2836 112.2593 0001756 109.3955 250.7503 15.80880021  3065
STARLINK-37073          
1 68151U 26049K   26091.83335647 -.00146815  00000+0 -99850-3 0  9999
2 68151  97.2835 112.2609 0001255  84.9608 292.7208 15.75234422  4342
STARLINK-37049          
1 68152U 26049L   26091.82666159 -.00018696  00000+0 -97091-4 0  9995
2 68152  97.2841 112.2622 0001857 100.8033 259.3445 15.80810086  3065
STARLINK-37072          
1 68153U 26049M   26091.83335647 -.00141475  00000+0 -96117-3 0  9991
2 68153  97.2842 112.2525 0001212  76.4370 281.2414 15.75243849  4349
STARLINK-36241          
1 68154U 26049N   26091.84578910  .00139857  00000+0  92138-3 0  9993
2 68154  97.2848 112.2349 0001458 109.3684 250.7739 15.75237075  3069
